{"type": "FeatureCollection", "features": [ {"type": "Feature", "properties": {"norad_id": 41335, "name": "SENTINEL-3A", "group": "resource", "lat": -35.7554615587915, "lon": -132.13336437419767, "alt_km": 809.3384156926613, "timestamp": "2025-12-15T04:01:20.100091+00:00", "meta": {"OBJECT_NAME": "SENTINEL-3A", "OBJECT_ID": "2016-011A", "EPOCH": "2025-12-14T06:48:53.788032", "MEAN_MOTION": 14.26731516, "ECCENTRICITY": 9.407e-05, "INCLINATION": 98.6314, "RA_OF_ASC_NODE": 53.2743, "ARG_OF_PERICENTER": 91.3619, "MEAN_ANOMALY": 268.7669, "EPHEMERIS_TYPE": 0, "CLASSIFICATION_TYPE": "U", "NORAD_CAT_ID": 41335, "ELEMENT_SET_NO": 999, "REV_AT_EPOCH": 51169, "BSTAR": 0.00011242488, "MEAN_MOTION_DOT": 2.28e-06, "MEAN_MOTION_DDOT": 0}, "tle": {"line1": "1 41335U 16011A   25348.28395588  .00000228  00000+0  11242-3 0  9999", "line2": "2 41335  98.6314  53.2743 0000940  91.3619 268.7669 14.26731516511697"}}, "geometry": {"type": "Point", "coordinates": [-132.13336437419767, -35.7554615587915]}}, {"type": "Feature", "properties": {"norad_id": 41556, "name": "ZIYUAN 3-2 (ZY 3-2)", "group": "resource", "lat": 73.13983628679182, "lon": 37.88416670195467, "alt_km": 502.5523491543863, "timestamp": "2025-12-15T04:01:20.100103+00:00", "meta": {"OBJECT_NAME": "ZIYUAN 3-2 (ZY 3-2)", "OBJECT_ID": "2016-033A", "EPOCH": "2025-12-14T08:45:13.135104", "MEAN_MOTION": 15.21534544, "ECCENTRICITY": 0.00125942, "INCLINATION": 97.4045, "RA_OF_ASC_NODE": 62.5055, "ARG_OF_PERICENTER": 242.8599, "MEAN_ANOMALY": 117.1354, "EPHEMERIS_TYPE": 0, "CLASSIFICATION_TYPE": "U", "NORAD_CAT_ID": 41556, "ELEMENT_SET_NO": 999, "REV_AT_EPOCH": 52988, "BSTAR": 0.00039047064, "MEAN_MOTION_DOT": 8.747e-05, "MEAN_MOTION_DDOT": 0}, "tle": {"line1": "1 41556U 16033A   25348.36473536  .00008747  00000+0  39047-3 0  9994", "line2": "2 41556  97.4045  62.5055 0012594 242.8599 117.1354 15.21534544529883"}}, "geometry": {"type": "Point", "coordinates": [37.88416670195467, 73.13983628679182]}}, {"type": "Feature", "properties": {"norad_id": 41599, "name": "CARTOSAT-2C", "group": "resource", "lat": -0.7286076054845839, "lon": 46.4894047623537, "alt_km": 507.07639001766074, "timestamp": "2025-12-15T04:01:20.100114+00:00", "meta": {"OBJECT_NAME": "CARTOSAT-2C", "OBJECT_ID": "2016-040A", "EPOCH": "2025-12-14T07:28:36.896160", "MEAN_MOTION": 15.19317272, "ECCENTRICITY": 0.00106819, "INCLINATION": 97.4767, "RA_OF_ASC_NODE": 45.5463, "ARG_OF_PERICENTER": 59.6865, "MEAN_ANOMALY": 300.5425, "EPHEMERIS_TYPE": 0, "CLASSIFICATION_TYPE": "U", "NORAD_CAT_ID": 41599, "ELEMENT_SET_NO": 999, "REV_AT_EPOCH": 52564, "BSTAR": 0.00027100776, "MEAN_MOTION_DOT": 5.663e-05, "MEAN_MOTION_DDOT": 0}, "tle": {"line1": "1 41599U 16040A   25348.31153815  .00005663  00000+0  27101-3 0  9991", "line2": "2 41599  97.4767  45.5463 0010681  59.6865 300.5425 15.19317272525641"}}, "geometry": {"type": "Point", "coordinates": [46.4894047623537, -0.7286076054845839]}}, {"type": "Feature", "properties": {"norad_id": 41601, "name": "SKYSAT-C1", "group": "resource", "lat": 9.098513405997565, "lon": -152.8306971781435, "alt_km": 471.2361981826898, "timestamp": "2025-12-15T04:01:20.100124+00:00", "meta": {"OBJECT_NAME": "SKYSAT-C1", "OBJECT_ID": "2016-040C", "EPOCH": "2025-12-14T02:12:30.764736", "MEAN_MOTION": 15.32623766, "ECCENTRICITY": 0.00022252, "INCLINATION": 96.9829, "RA_OF_ASC_NODE": 25.0294, "ARG_OF_PERICENTER": 11.9046, "MEAN_ANOMALY": 348.2249, "EPHEMERIS_TYPE": 0, "CLASSIFICATION_TYPE": "U", "NORAD_CAT_ID": 41601, "ELEMENT_SET_NO": 999, "REV_AT_EPOCH": 52948, "BSTAR": 0.00032402442, "MEAN_MOTION_DOT": 0.00010139, "MEAN_MOTION_DDOT": 0}, "tle": {"line1": "1 41601U 16040C   25348.09202274  .00010139  00000+0  32402-3 0  9998", "line2": "2 41601  96.9829  25.0294 0002225  11.9046 348.2249 15.32623766529482"}}, "geometry": {"type": "Point", "coordinates": [-152.8306971781435, 9.098513405997565]}}, {"type": "Feature", "properties": {"norad_id": 41603, "name": "LAPAN-A3", "group": "resource", "lat": -54.206055425779304, "lon": -3.3482735910200607, "alt_km": 472.05103148860235, "timestamp": "2025-12-15T04:01:20.100135+00:00", "meta": {"OBJECT_NAME": "LAPAN-A3", "OBJECT_ID": "2016-040E", "EPOCH": "2025-12-14T06:18:30.212352", "MEAN_MOTION": 15.31568458, "ECCENTRICITY": 0.00094858, "INCLINATION": 97.143, "RA_OF_ASC_NODE": 345.7639, "ARG_OF_PERICENTER": 328.0062, "MEAN_ANOMALY": 32.0603, "EPHEMERIS_TYPE": 0, "CLASSIFICATION_TYPE": "U", "NORAD_CAT_ID": 41603, "ELEMENT_SET_NO": 999, "REV_AT_EPOCH": 52649, "BSTAR": 0.00016922499, "MEAN_MOTION_DOT": 5.09e-05, "MEAN_MOTION_DDOT": 0}, "tle": {"line1": "1 41603U 16040E   25348.26284968  .00005090  00000+0  16922-3 0  9998", "line2": "2 41603  97.1430 345.7639 0009485 328.0062  32.0603 15.31568458526490"}}, "geometry": {"type": "Point", "coordinates": [-3.3482735910200607, -54.206055425779304]}}, {"type": "Feature", "properties": {"norad_id": 41604, "name": "BIROS", "group": "resource", "lat": -77.33143981630401, "lon": 54.20481453417741, "alt_km": 309.4010422107467, "timestamp": "2025-12-15T04:01:20.100151+00:00", "meta": {"OBJECT_NAME": "BIROS", "OBJECT_ID": "2016-040F", "EPOCH": "2025-12-14T01:10:36.293952", "MEAN_MOTION": 15.9031628, "ECCENTRICITY": 0.00035722, "INCLINATION": 97.0681, "RA_OF_ASC_NODE": 19.5346, "ARG_OF_PERICENTER": 145.824, "MEAN_ANOMALY": 214.3265, "EPHEMERIS_TYPE": 0, "CLASSIFICATION_TYPE": "U", "NORAD_CAT_ID": 41604, "ELEMENT_SET_NO": 999, "REV_AT_EPOCH": 52893, "BSTAR": 0.00061164476, "MEAN_MOTION_DOT": 0.00184229, "MEAN_MOTION_DDOT": 1.4255143e-05}, "tle": {"line1": "1 41604U 16040F   25348.04903118  .00184229  14255-4  61164-3 0  9992", "line2": "2 41604  97.0681  19.5346 0003572 145.8240 214.3265 15.90316280528932"}}, "geometry": {"type": "Point", "coordinates": [54.20481453417741, -77.33143981630401]}}, {"type": "Feature", "properties": {"norad_id": 41727, "name": "GAOFEN-3", "group": "resource", "lat": 22.616109780207836, "lon": -8.813934979197972, "alt_km": 750.0011080050335, "timestamp": "2025-12-15T04:01:20.100161+00:00", "meta": {"OBJECT_NAME": "GAOFEN-3", "OBJECT_ID": "2016-049A", "EPOCH": "2025-12-14T07:56:08.345760", "MEAN_MOTION": 14.42214748, "ECCENTRICITY": 0.00013835, "INCLINATION": 98.4044, "RA_OF_ASC_NODE": 353.8929, "ARG_OF_PERICENTER": 60.3703, "MEAN_ANOMALY": 299.7625, "EPHEMERIS_TYPE": 0, "CLASSIFICATION_TYPE": "U", "NORAD_CAT_ID": 41727, "ELEMENT_SET_NO": 999, "REV_AT_EPOCH": 49200, "BSTAR": 9.0426859e-05, "MEAN_MOTION_DOT": 2.54e-06, "MEAN_MOTION_DDOT": 0}, "tle": {"line1": "1 41727U 16049A   25348.33065215  .00000254  00000+0  90427-4 0  9994", "line2": "2 41727  98.4044 353.8929 0001383  60.3703 299.7625 14.42214748492007"}}, "geometry": {"type": "Point", "coordinates": [-8.813934979197972, 22.616109780207836]}}, {"type": "Feature", "properties": {"norad_id": 41771, "name": "SKYSAT-C4", "group": "resource", "lat": -10.397410826372635, "lon": -167.04284873183633, "alt_km": 442.98841411486865, "timestamp": "2025-12-15T04:01:20.100172+00:00", "meta": {"OBJECT_NAME": "SKYSAT-C4", "OBJECT_ID": "2016-058B", "EPOCH": "2025-12-14T08:30:50.912352", "MEAN_MOTION": 15.42308576, "ECCENTRICITY": 0.00016762, "INCLINATION": 96.938, "RA_OF_ASC_NODE": 13.4639, "ARG_OF_PERICENTER": 135.2939, "MEAN_ANOMALY": 224.8445, "EPHEMERIS_TYPE": 0, "CLASSIFICATION_TYPE": "U", "NORAD_CAT_ID": 41771, "ELEMENT_SET_NO": 999, "REV_AT_EPOCH": 51692, "BSTAR": 0.00038399753, "MEAN_MOTION_DOT": 0.00016471, "MEAN_MOTION_DDOT": 0}, "tle": {"line1": "1 41771U 16058B   25348.35475593  .00016471  00000+0  38400-3 0  9999", "line2": "2 41771  96.9380  13.4639 0001676 135.2939 224.8445 15.42308576516928"}}, "geometry": {"type": "Point", "coordinates": [-167.04284873183633, -10.397410826372635]}}, {"type": "Feature", "properties": {"norad_id": 41772, "name": "SKYSAT-C5", "group": "resource", "lat": 35.57164412509089, "lon": 27.722172239384417, "alt_km": 461.1657835159949, "timestamp": "2025-12-15T04:01:20.100183+00:00", "meta": {"OBJECT_NAME": "SKYSAT-C5", "OBJECT_ID": "2016-058C", "EPOCH": "2025-12-14T02:49:32.636640", "MEAN_MOTION": 15.34499873, "ECCENTRICITY": 0.0001679, "INCLINATION": 97.0774, "RA_OF_ASC_NODE": 31.8129, "ARG_OF_PERICENTER": 214.96, "MEAN_ANOMALY": 145.1534, "EPHEMERIS_TYPE": 0, "CLASSIFICATION_TYPE": "U", "NORAD_CAT_ID": 41772, "ELEMENT_SET_NO": 999, "REV_AT_EPOCH": 51537, "BSTAR": 0.00033072121, "MEAN_MOTION_DOT": 0.00010981, "MEAN_MOTION_DDOT": 0}, "tle": {"line1": "1 41772U 16058C   25348.11773885  .00010981  00000+0  33072-3 0  9999", "line2": "2 41772  97.0774  31.8129 0001679 214.9600 145.1534 15.34499873515373"}}, "geometry": {"type": "Point", "coordinates": [27.722172239384417, 35.57164412509089]}}, {"type": "Feature", "properties": {"norad_id": 41773, "name": "SKYSAT-C2", "group": "resource", "lat": 70.29477875255495, "lon": -6.583457994723665, "alt_km": 445.1989309308856, "timestamp": "2025-12-15T04:01:20.100193+00:00", "meta": {"OBJECT_NAME": "SKYSAT-C2", "OBJECT_ID": "2016-058D", "EPOCH": "2025-12-14T01:09:19.522368", "MEAN_MOTION": 15.37310352, "ECCENTRICITY": 0.00041138, "INCLINATION": 97.0369, "RA_OF_ASC_NODE": 12.5196, "ARG_OF_PERICENTER": 31.301, "MEAN_ANOMALY": 328.848, "EPHEMERIS_TYPE": 0, "CLASSIFICATION_TYPE": "U", "NORAD_CAT_ID": 41773, "ELEMENT_SET_NO": 999, "REV_AT_EPOCH": 51656, "BSTAR": 0.00035412269, "MEAN_MOTION_DOT": 0.00012879, "MEAN_MOTION_DDOT": 0}, "tle": {"line1": "1 41773U 16058D   25348.04814262  .00012879  00000+0  35412-3 0  9995", "line2": "2 41773  97.0369  12.5196 0004113  31.3010 328.8480 15.37310352516565"}}, "geometry": {"type": "Point", "coordinates": [-6.583457994723665, 70.29477875255495]}}]}